OBJECT_NAME,OBJECT_ID,EPOCH,MEAN_MOTION,ECCENTRICITY,INCLINATION,RA_OF_ASC_NODE,ARG_OF_PERICENTER,MEAN_ANOMALY,EPHEMERIS_TYPE,CLASSIFICATION_TYPE,NORAD_CAT_ID,ELEMENT_SET_NO,REV_AT_EPOCH,BSTAR,MEAN_MOTION_DOT,MEAN_MOTION_DDOT
TDRS 3,1988-091B,2026-06-05T09:51:42.573888,1.00278590,.0038598,12.6112,341.0781,356.6644,15.0686,0,U,19548,999,12527,0,-.291E-5,0
FLTSATCOM 8 (USA 46),1989-077A,2026-06-05T17:40:37.183008,1.00283488,.0004703,12.4248,351.2359,47.3394,246.0987,0,U,20253,999,26044,0,-.359E-5,0
SKYNET 4C,1990-079A,2026-06-05T17:28:33.850848,1.00272300,.0002783,13.3440,349.8904,89.1488,110.6154,0,U,20776,999,13077,0,.134E-5,0
TDRS 5,1991-054B,2026-06-05T10:43:07.129056,1.00270581,.0005936,14.0728,353.8648,278.2368,334.8849,0,U,21639,999,12759,0,.91E-6,0
TDRS 6,1993-003B,2026-06-05T09:52:34.991040,1.00275679,.0007249,14.1828,357.1491,179.4125,179.5749,0,U,22314,999,12228,0,-.288E-5,0
UFO 2 (USA 95),1993-056A,2026-06-05T17:36:35.210304,1.00271257,.0006532,11.8911,3.6214,4.4573,178.8461,0,U,22787,999,11843,0,.133E-5,0
USA 99 (MILSTAR-1 1),1994-009A,2026-06-04T03:39:56.267712,0.98720405,.00005146,17.6073,27.8410,214.9748,142.5652,0,U,22988,999,3281,0,.19E-6,0
UFO 4 (USA 108),1995-003A,2026-06-05T12:06:41.897376,1.00270714,.0003014,9.7061,13.2734,52.6007,181.9251,0,U,23467,999,11483,0,-.14E-6,0
TDRS 7,1995-035B,2026-06-05T17:38:23.953344,1.00267473,.0011054,13.3819,348.2718,75.0277,184.5653,0,U,23613,999,11313,0,-.231E-5,0
USA 115 (MILSTAR-1 2),1995-060A,2026-06-05T13:46:41.438208,1.00366744,.000169,14.0687,3.8341,122.8035,235.9327,0,U,23712,999,3276,0,-.162E-5,0
INMARSAT 3-F1,1996-020A,2026-06-05T05:09:38.611008,0.99980968,.0003535,10.5774,46.7457,32.8954,168.8537,0,U,23839,999,11013,0,-.182E-5,0
INMARSAT 3-F2,1996-053A,2026-06-05T14:47:09.008736,1.00004576,.000669,9.8322,54.0555,19.5356,202.7790,0,U,24307,999,10880,0,-.158E-5,0
INMARSAT 3-F3,1996-070A,2026-06-04T18:57:30.265632,0.99977257,.00035438,10.2926,49.7728,12.3101,171.0823,0,U,24674,999,10778,0,.112E-5,0
AMC-3,1997-050A,2026-06-05T11:15:41.914368,1.00107765,.0010465,8.1165,64.2198,111.2215,173.9176,0,U,24936,999,5231,0,-.232E-5,0
USA 134,1997-065A,2026-06-05T13:54:07.791840,1.00271398,.0003745,12.7702,21.8084,342.6783,345.8791,0,U,25019,999,3283,0,-.56E-6,0
INMARSAT 3-F5,1998-006B,2026-06-05T03:15:31.023936,1.00273304,.00049297,9.6662,53.3785,16.7168,178.3965,0,U,25153,999,10377,0,-.282E-5,0
ABS-6,1999-053A,2026-06-05T15:59:03.670944,1.00267908,.0003124,0.0260,41.7840,48.2788,202.8018,0,U,25924,999,9772,0,0,0
UFO 10 (USA 146),1999-063A,2026-06-02T23:48:29.573280,1.00273735,.00019407,9.8534,27.2872,17.6670,180.6760,0,U,25967,999,9720,0,-.181E-5,0
ASIASTAR,2000-016A,2026-06-05T15:43:39.697248,1.00268823,.0004999,9.1029,58.2782,20.1982,156.5127,0,U,26107,999,9580,0,-.323E-5,0
USA 149 (DSP 20),2000-024A,2026-06-05T08:07:30.853056,1.00270844,.0001594,13.1615,11.9358,320.8523,237.4684,0,U,26356,999,3279,0,.102E-5,0
TDRS 8,2000-034A,2026-06-05T17:41:05.509248,1.00269318,.0004948,12.6663,31.4211,10.1387,202.6435,0,U,26388,999,9506,0,-.186E-5,0
NSS-11,2000-059A,2026-06-05T16:00:00.084096,1.00272213,.0003202,2.0963,81.5258,354.1119,234.4501,0,U,26554,999,4117,0,.37E-6,0
USA 153,2000-065A,2026-06-05T16:36:13.883904,1.00272674,.0003211,11.6051,35.5167,43.7533,198.4191,0,U,26575,999,3281,0,-.315E-5,0
AMC-6,2000-067A,2026-06-05T16:17:54.367008,1.00270523,.0003763,0.1224,82.8983,359.5277,281.1265,0,U,26580,999,9377,0,.101E-5,0
USA 157 (MILSTAR-2 2),2001-009A,2026-06-05T11:36:50.916096,1.00270532,.0038883,11.5296,19.8357,176.8936,81.3346,0,U,26715,999,3282,0,.118E-5,0
USA 159 (DSP 21),2001-033A,2026-06-05T11:35:11.523264,0.99201301,.0001484,12.7708,16.5213,115.6522,249.7308,0,U,26880,999,3284,0,-.244E-5,0
INTELSAT 902 (IS-902),2001-039A,2026-06-05T04:43:25.381920,1.00271322,.0004263,6.0882,71.9274,0.2969,202.1539,0,U,26900,999,9057,0,-.272E-5,0
USA 164 (MILSTAR-2 3),2002-001A,2026-06-05T17:54:21.674016,1.00273872,.0099453,11.1658,21.9753,8.2311,151.4809,0,U,27168,999,3284,0,.106E-5,0
INTELSAT 904 (IS-904),2002-007A,2026-06-05T06:01:34.581216,1.00270624,.000723,6.8900,69.3272,359.5843,243.6787,0,U,27380,999,5164,0,-.215E-5,0
DIRECTV 5 (TEMPO 1),2002-023A,2026-06-05T13:52:21.354816,1.00271826,.0003501,4.8477,75.4544,6.7085,269.8335,0,U,27426,999,8800,0,-.45E-6,0
INTELSAT 905 (IS-905),2002-027A,2026-06-05T11:20:38.809824,1.00272550,.0004198,6.7238,69.9406,12.6738,204.2394,0,U,27438,999,5124,0,.105E-5,0
