TDRS 3                  
1 19548U 88091B   26156.41090942 -.00000291  00000+0  00000+0 0  9993
2 19548  12.6112 341.0781 0038598 356.6644  15.0686  1.00278590125278
FLTSATCOM 8 (USA 46)    
1 20253U 89077A   26156.73654147 -.00000359  00000+0  00000+0 0  9996
2 20253  12.4248 351.2359 0004703  47.3394 246.0987  1.00283488260443
SKYNET 4C               
1 20776U 90079A   26156.72816957  .00000134  00000+0  00000+0 0  9998
2 20776  13.3440 349.8904 0002783  89.1488 110.6154  1.00272300130775
TDRS 5                  
1 21639U 91054B   26156.44661029  .00000091  00000+0  00000+0 0  9990
2 21639  14.0728 353.8648 0005936 278.2368 334.8849  1.00270581127598
TDRS 6                  
1 22314U 93003B   26156.41151610 -.00000288  00000+0  00000+0 0  9993
2 22314  14.1828 357.1491 0007249 179.4125 179.5749  1.00275679122283
UFO 2 (USA 95)          
1 22787U 93056A   26156.73374086  .00000133  00000+0  00000+0 0  9992
2 22787  11.8911   3.6214 0006532   4.4573 178.8461  1.00271257118431
USA 99 (MILSTAR-1 1)    
1 22988U 94009A   26155.15273458  .00000019  00000+0  00000+0 0  9993
2 22988  17.6073  27.8410 0000514 214.9748 142.5652  0.98720405 32816
UFO 4 (USA 108)         
1 23467U 95003A   26156.50465159 -.00000014  00000+0  00000+0 0  9998
2 23467   9.7061  13.2734 0003014  52.6007 181.9251  1.00270714114831
TDRS 7                  
1 23613U 95035B   26156.73499946 -.00000231  00000+0  00000+0 0  9993
2 23613  13.3819 348.2718 0011054  75.0277 184.5653  1.00267473113135
USA 115 (MILSTAR-1 2)   
1 23712U 95060A   26156.57409072 -.00000162  00000+0  00000+0 0  9997
2 23712  14.0687   3.8341 0001690 122.8035 235.9327  1.00366744 32769
INMARSAT 3-F1           
1 23839U 96020A   26156.21503022 -.00000182  00000+0  00000+0 0  9997
2 23839  10.5774  46.7457 0003535  32.8954 168.8537  0.99980968110133
INMARSAT 3-F2           
1 24307U 96053A   26156.61607649 -.00000158  00000+0  00000+0 0  9991
2 24307   9.8322  54.0555 0006690  19.5356 202.7790  1.00004576108803
INMARSAT 3-F3           
1 24674U 96070A   26155.78993363  .00000112  00000+0  00000+0 0  9994
2 24674  10.2926  49.7728 0003543  12.3101 171.0823  0.99977257107785
AMC-3                   
1 24936U 97050A   26156.46923512 -.00000232  00000+0  00000+0 0  9993
2 24936   8.1165  64.2198 0010465 111.2215 173.9176  1.00107765 52318
USA 134                 
1 25019U 97065A   26156.57925685 -.00000056  00000+0  00000+0 0  9991
2 25019  12.7702  21.8084 0003745 342.6783 345.8791  1.00271398 32837
INMARSAT 3-F5           
1 25153U 98006B   26156.13577574 -.00000282  00000+0  00000+0 0  9999
2 25153   9.6662  53.3785 0004929  16.7168 178.3965  1.00273304103778
ABS-6                   
1 25924U 99053A   26156.66601471  .00000000  00000+0  00000+0 0  9997
2 25924   0.0260  41.7840 0003124  48.2788 202.8018  1.00267908 97722
UFO 10 (USA 146)        
1 25967U 99063A   26153.99200895 -.00000181  00000+0  00000+0 0  9994
2 25967   9.8534  27.2872 0001940  17.6670 180.6760  1.00273735 97203
ASIASTAR                
1 26107U 00016A   26156.65532057 -.00000323  00000+0  00000+0 0  9993
2 26107   9.1029  58.2782 0004999  20.1982 156.5127  1.00268823 95803
USA 149 (DSP 20)        
1 26356U 00024A   26156.33855154  .00000102  00000+0  00000+0 0  9993
2 26356  13.1615  11.9358 0001594 320.8523 237.4684  1.00270844 32791
TDRS 8                  
1 26388U 00034A   26156.73686932 -.00000186  00000+0  00000+0 0  9992
2 26388  12.6663  31.4211 0004948  10.1387 202.6435  1.00269318 95062
NSS-11                  
1 26554U 00059A   26156.66666764  .00000037  00000+0  00000+0 0  9991
2 26554   2.0963  81.5258 0003202 354.1119 234.4501  1.00272213 41174
USA 153                 
1 26575U 00065A   26156.69182736 -.00000315  00000+0  00000+0 0  9996
2 26575  11.6051  35.5167 0003211  43.7533 198.4191  1.00272674 32816
AMC-6                   
1 26580U 00067A   26156.67910147  .00000101  00000+0  00000+0 0  9999
2 26580   0.1224  82.8983 0003763 359.5277 281.1265  1.00270523 93778
USA 157 (MILSTAR-2 2)   
1 26715U 01009A   26156.48392264  .00000118  00000+0  00000+0 0  9997
2 26715  11.5296  19.8357 0038883 176.8936  81.3346  1.00270532 32820
USA 159 (DSP 21)        
1 26880U 01033A   26156.48277226 -.00000244  00000+0  00000+0 0  9998
2 26880  12.7708  16.5213 0001484 115.6522 249.7308  0.99201301 32843
INTELSAT 902 (IS-902)   
1 26900U 01039A   26156.19682155 -.00000272  00000+0  00000+0 0  9997
2 26900   6.0882  71.9274 0004263   0.2969 202.1539  1.00271322 90575
USA 164 (MILSTAR-2 3)   
1 27168U 02001A   26156.74608419  .00000106  00000+0  00000+0 0  9991
2 27168  11.1658  21.9753 0099453   8.2311 151.4809  1.00273872 32845
INTELSAT 904 (IS-904)   
1 27380U 02007A   26156.25109469 -.00000215  00000+0  00000+0 0  9992
2 27380   6.8900  69.3272 0007230 359.5843 243.6787  1.00270624 51648
DIRECTV 5 (TEMPO 1)     
1 27426U 02023A   26156.57802494 -.00000045  00000+0  00000+0 0  9995
2 27426   4.8477  75.4544 0003501   6.7085 269.8335  1.00271826 88006
INTELSAT 905 (IS-905)   
1 27438U 02027A   26156.47267141  .00000105  00000+0  00000+0 0  9991
2 27438   6.7238  69.9406 0004198  12.6738 204.2394  1.00272550 51243
